{
    "links": {
        "self": "http://www.neowsapp.com/rest/v1/neo/3836127?api_key=iIulBulltgU6a56xZRHN4H3l9WmuAYTsLGpBGhQ2"
    },
    "id": "3836127",
    "neo_reference_id": "3836127",
    "name": "(2018 VJ5)",
    "designation": "2018 VJ5",
    "nasa_jpl_url": "http://ssd.jpl.nasa.gov/sbdb.cgi?sstr=3836127",
    "absolute_magnitude_h": 23.4,
    "estimated_diameter": {
        "kilometers": {
            "estimated_diameter_min": 0.0555334912,
            "estimated_diameter_max": 0.1241766613
        },
        "meters": {
            "estimated_diameter_min": 55.5334911581,
            "estimated_diameter_max": 124.1766612574
        },
        "miles": {
            "estimated_diameter_min": 0.0345069009,
            "estimated_diameter_max": 0.0771597762
        },
        "feet": {
            "estimated_diameter_min": 182.1964991311,
            "estimated_diameter_max": 407.4037573197
        }
    },
    "is_potentially_hazardous_asteroid": false,
    "close_approach_data": [
        {
            "close_approach_date": "2018-11-07",
            "close_approach_date_full": "2018-Nov-07 20:55",
            "epoch_date_close_approach": 1541624100000,
            "relative_velocity": {
                "kilometers_per_second": "7.9528632549",
                "kilometers_per_hour": "28630.3077175351",
                "miles_per_hour": "17789.7598148206"
            },
            "miss_distance": {
                "astronomical": "0.1497615878",
                "lunar": "58.2572576542",
                "kilometers": "22404014.542697986",
                "miles": "13921209.1017887668"
            },
            "orbiting_body": "Earth"
        }
    ],
    "orbital_data": {
        "orbit_id": "14",
        "orbit_determination_date": "2020-09-11 07:41:26",
        "first_observation_date": "2018-11-07",
        "last_observation_date": "2018-12-19",
        "data_arc_in_days": 42,
        "observations_used": 78,
        "orbit_uncertainty": "6",
        "minimum_orbit_intersection": ".146231",
        "jupiter_tisserand_invariant": "3.170",
        "epoch_osculation": "2459000.5",
        "eccentricity": ".5598441610799844",
        "semi_major_axis": "2.564446645156518",
        "inclination": "11.28136973444239",
        "ascending_node_longitude": "237.53835560014",
        "orbital_period": "1499.991950496932",
        "perihelion_distance": "1.128756164464487",
        "perihelion_argument": "163.2851491401849",
        "aphelion_distance": "4.000137125848549",
        "perihelion_time": "2458424.508788038542",
        "mean_anomaly": "138.2386327056154",
        "mean_motion": ".2400012879274023",
        "equinox": "J2000",
        "orbit_class": {
            "orbit_class_type": "AMO",
            "orbit_class_description": "Near-Earth asteroid orbits similar to that of 1221 Amor",
            "orbit_class_range": "1.017 AU < q (perihelion) < 1.3 AU"
        }
    },
    "is_sentry_object": false
}